NORAD_CAT_ID,OBJECT_NAME,OBJECT_TYPE,EPOCH,MEAN_MOTION,ECCENTRICITY,INCLINATION,RA_OF_ASC_NODE,ARG_OF_PERICENTER,MEAN_ANOMALY,BSTAR,MEAN_MOTION_DOT,MEAN_MOTION_DDOT,TLE_LINE0,TLE_LINE1,TLE_LINE2,SEMIMAJOR_AXIS,PERIOD,APOGEE,PERIGEE,DECAYED
50168.0,STARLINK-3296,PAYLOAD,2022-09-30 14:23:24,15.08854042,0.0001778,53.2145,127.9262,45.2682,314.8455,0.00082084,0.00012805,0.0,0 STARLINK-3296,1 50168U 21125N   22273.59959300  .00012805  00000-0  82084-3 0  9998,2 50168  53.2145 127.9262 0001778  45.2682 314.8455 15.08854042 43870,6917.837,95.437,540.932,538.472,0.0
50168.0,STARLINK-3296,PAYLOAD,2022-09-30 20:44:57,15.0884537,0.0001678,53.2154,126.7358,42.8229,317.2893,0.00050209,7.713e-05,0.0,0 STARLINK-3296,1 50168U 21125N   22273.86455509  .00007713  00000-0  50209-3 0  9996,2 50168  53.2154 126.7358 0001678  42.8229 317.2893 15.08845370 47019,6917.864000000001,95.437,540.89,538.568,0.0
50168.0,STARLINK-3296,PAYLOAD,2022-09-30 23:55:43,15.08846311,0.0001646,53.2151,126.141,46.9863,313.1267,0.00049465,7.594e-05,0.0,0 STARLINK-3296,1 50168U 21125N   22273.99703498  .00007594  00000-0  49465-3 0  9992,2 50168  53.2151 126.1410 0001646  46.9863 313.1267 15.08846311 43936,6917.861,95.437,540.865,538.587,0.0
50168.0,STARLINK-3296,PAYLOAD,2022-10-01 12:38:48,15.08853202,0.0001826,53.2149,123.7629,43.1211,316.9923,0.00056832,8.772e-05,0.0,0 STARLINK-3296,1 50168U 21125N   22274.52695134  .00008772  00000-0  56832-3 0  9994,2 50168  53.2149 123.7629 0001826  43.1211 316.9923 15.08853202 47115,6917.84,95.437,540.9680000000002,538.442,0.0
50168.0,STARLINK-3296,PAYLOAD,2022-10-01 19:00:21,15.08845858,0.0001794,53.2149,122.5732,48.0884,312.0261,0.00029048,4.339e-05,0.0,0 STARLINK-3296,1 50168U 21125N   22274.79191223  .00004339  00000-0  29048-3 0  9997,2 50168  53.2149 122.5732 0001794  48.0884 312.0261 15.08845858 44051,6917.861999999999,95.437,540.969,538.486,0.0
50168.0,STARLINK-3296,PAYLOAD,2022-10-01 20:35:44,15.08844344,0.0001899999999999,53.2152,122.2763,42.6382,317.4757,0.00030454,4.563e-05,0.0,0 STARLINK-3296,1 50168U 21125N   22274.85815340  .00004563  00000-0  30454-3 0  9999,2 50168  53.2152 122.2763 0001900  42.6382 317.4757 15.08844344 47161,6917.8669999999975,95.437,541.047,538.418,0.0
50168.0,STARLINK-3296,PAYLOAD,2022-10-01 23:46:30,15.08845731,0.0001816,53.2154,121.6814,43.3544,316.7591,0.00042226,6.440000000000001e-05,0.0,0 STARLINK-3296,1 50168U 21125N   22274.99063303  .00006440  00000-0  42226-3 0  9994,2 50168  53.2154 121.6814 0001816  43.3544 316.7591 15.08845731 47188,6917.863,95.437,540.984,538.472,0.0
50168.0,STARLINK-3296,PAYLOAD,2022-10-02 18:51:08,15.08836453,0.0001851,53.2165,118.1114,44.9183,315.1959,7.5214e-05,9.09e-06,0.0,0 STARLINK-3296,1 50168U 21125N   22275.78551797  .00000909  00000-0  75214-4 0  9999,2 50168  53.2165 118.1114 0001851  44.9183 315.1959 15.08836453 44201,6917.891,95.438,541.0369999999998,538.476,0.0
50168.0,STARLINK-3296,PAYLOAD,2022-10-02 20:26:31,15.08838499,0.0001847,53.2158,117.8156,44.8167,315.2974,7.8994e-05,9.69e-06,0.0,0 STARLINK-3296,1 50168U 21125N   22275.85175803  .00000969  00000-0  78994-4 0  9991,2 50168  53.2158 117.8156 0001847  44.8167 315.2974 15.08838499 47316,6917.885,95.438,541.028,538.472,0.0
50168.0,STARLINK-3296,PAYLOAD,2022-10-03 13:55:45,15.08851372,0.0001855999999999,53.2164,114.5435,44.7723,315.3419,0.00032666,4.916e-05,0.0,0 STARLINK-3296,1 50168U 21125N   22276.58039345  .00004916  00000-0  32666-3 0  9993,2 50168  53.2164 114.5435 0001856  44.7723 315.3419 15.08851372 47426,6917.846,95.437,540.995,538.427,0.0
50168.0,STARLINK-3296,PAYLOAD,2022-10-03 20:17:18,15.08847516,0.0001859,53.2166,113.3536,43.3365,316.7773,0.00028412,4.237e-05,0.0,0 STARLINK-3296,1 50168U 21125N   22276.84535488  .00004237  00000-0  28412-3 0  9991,2 50168  53.2166 113.3536 0001859  43.3365 316.7773 15.08847516 47464,6917.857,95.437,541.008,538.436,0.0
50168.0,STARLINK-3296,PAYLOAD,2022-10-04 09:00:23,15.08852646,0.0001847,53.216,110.9756,41.1877,318.9254,0.00036439,5.518e-05,0.0,0 STARLINK-3296,1 50168U 21125N   22277.37527205  .00005518  00000-0  36439-3 0  9999,2 50168  53.2160 110.9756 0001847  41.1877 318.9254 15.08852646 47543,6917.842,95.437,540.984,538.429,0.0
50168.0,STARLINK-3296,PAYLOAD,2022-10-04 20:08:05,15.08837365,0.0001972,53.2156,108.8944,47.9686,312.1473,1.3071e-05,-8e-07,0.0,0 STARLINK-3296,1 50168U 21125N   22277.83895804 -.00000080  00000-0  13071-4 0  9991,2 50168  53.2156 108.8944 0001972  47.9686 312.1473 15.08837365 44518,6917.888000000001,95.438,541.118,538.389,0.0
50168.0,STARLINK-3296,PAYLOAD,2022-10-05 12:01:57,15.08834017,0.000197,53.2155,105.9205,47.3726,312.7432,1.4764e-05,-5.3e-07,0.0,0 STARLINK-3296,1 50168U 21125N   22278.50136274 -.00000053  00000-0  14764-4 0  9995,2 50168  53.2155 105.9205 0001970  47.3726 312.7432 15.08834017 47719,6917.899,95.438,541.127,538.401,0.0
50168.0,STARLINK-3296,PAYLOAD,2022-10-05 19:58:53,15.08839958,0.0001928,53.2158,104.4337,47.6532,312.4623,0.00010709,1.417e-05,0.0,0 STARLINK-3296,1 50168U 21125N   22278.83256082  .00001417  00000-0  10709-3 0  9999,2 50168  53.2158 104.4337 0001928  47.6532 312.4623 15.08839958 47766,6917.880999999999,95.438,541.0790000000002,538.4119999999998,0.0
50168.0,STARLINK-3296,PAYLOAD,2022-10-05 21:34:16,15.08842333,0.0001891,53.2157,104.1359,49.6503,310.4654,0.0001443,2.009e-05,0.0,0 STARLINK-3296,1 50168U 21125N   22278.89879999  .00002009  00000-0  14430-3 0  9996,2 50168  53.2157 104.1359 0001891  49.6503 310.4654 15.08842333 44675,6917.873000000001,95.437,541.0459999999998,538.43,0.0
50168.0,STARLINK-3296,PAYLOAD,2022-10-06 07:06:35,15.08838098,0.0001896,53.2158,102.3523,41.4364,318.6771,4.769600000000001e-05,4.71e-06,0.0,0 STARLINK-3296,1 50168U 21125N   22279.29624251  .00000471  00000-0  47696-4 0  9992,2 50168  53.2158 102.3523 0001896  41.4364 318.6771 15.08838098 47833,6917.886,95.438,541.063,538.44,0.0
50168.0,STARLINK-3296,PAYLOAD,2022-10-06 19:49:40,15.08840845,0.0001733999999999,53.2168,99.9719,46.0144,314.099,0.00018972,2.733e-05,0.0,0 STARLINK-3296,1 50168U 21125N   22279.82616305  .00002733  00000-0  18972-3 0  9999,2 50168  53.2168  99.9719 0001734  46.0144 314.0990 15.08840845 47915,6917.878000000002,95.438,540.942,538.543,0.0
50168.0,STARLINK-3296,PAYLOAD,2022-10-07 11:43:31,15.08845394,0.0001876999999999,53.2156,97.0001,50.9433,309.1726,0.00025124,3.713e-05,0.0,0 STARLINK-3296,1 50168U 21125N   22280.48856204  .00003713  00000-0  25124-3 0  9993,2 50168  53.2156  97.0001 0001877  50.9433 309.1726 15.08845394 48016,6917.864000000001,95.437,541.0269999999998,538.43,0.0
50168.0,STARLINK-3296,PAYLOAD,2022-10-07 18:05:04,15.0884103,0.0001974,53.2163,95.8104,42.2671,317.8473,0.00011662,1.568e-05,0.0,0 STARLINK-3296,1 50168U 21125N   22280.75352327  .00001568  00000-0  11662-3 0  9998,2 50168  53.2163  95.8104 0001974  42.2671 317.8473 15.08841030 48052,6917.877,95.437,541.1080000000002,538.377,0.0
50168.0,STARLINK-3296,PAYLOAD,2022-10-08 11:34:20,15.08817678,0.0001945,53.2157,92.539,48.5678,311.5481,-0.00017194,-3.022e-05,0.0,0 STARLINK-3296,1 50168U 21125N   22281.48218072 -.00003022  00000-0 -17194-3 0  9992,2 50168  53.2157  92.5390 0001945  48.5678 311.5481 15.08817678 48163,6917.949000000001,95.439,541.159,538.4680000000002,0.0
50168.0,STARLINK-3296,PAYLOAD,2022-10-08 17:55:52,15.0883465,0.0001954,53.216,91.3496,43.5238,316.5908,8.337600000000001e-05,1.039e-05,0.0,0 STARLINK-3296,1 50168U 21125N   22281.74713460  .00001039  00000-0  83376-4 0  9992,2 50168  53.2160  91.3496 0001954  43.5238 316.5908 15.08834650 48201,6917.897,95.438,541.113,538.41,0.0
50168.0,STARLINK-3296,PAYLOAD,2022-10-09 11:25:06,15.08851424,0.0001996999999999,53.2163,88.0786,43.362,316.7529,0.00030124,4.511e-05,0.0,0 STARLINK-3296,1 50168U 21125N   22282.47576642  .00004511  00000-0  30124-3 0  9992,2 50168  53.2163  88.0786 0001997  43.3620 316.7529 15.08851424 48310,6917.845,95.437,541.092,538.3290000000002,0.0
50168.0,STARLINK-3296,PAYLOAD,2022-10-09 17:46:38,15.088557000000002,0.0002005999999999,53.2158,86.8882,44.606,315.5093,0.00049151,7.546e-05,0.0,0 STARLINK-3296,1 50168U 21125N   22282.74072713  .00007546  00000-0  49151-3 0  9993,2 50168  53.2158  86.8882 0002006  44.6060 315.5093 15.08855700 48359,6917.831999999999,95.437,541.085,538.31,0.0
50168.0,STARLINK-3296,PAYLOAD,2022-10-10 06:29:43,15.08850381,0.0002011,53.2163,84.5107,39.2431,320.8706,0.00039014,5.928e-05,0.0,0 STARLINK-3296,1 50168U 21125N   22283.27064677  .00005928  00000-0  39014-3 0  9991,2 50168  53.2163  84.5107 0002011  39.2431 320.8706 15.08850381 45333,6917.849,95.437,541.105,538.322,0.0
50168.0,STARLINK-3296,PAYLOAD,2022-10-10 11:15:53,15.08841486,0.0001959,53.2166,83.6186,38.65,321.4632,0.00027207,4.045e-05,0.0,0 STARLINK-3296,1 50168U 21125N   22283.46936876  .00004045  00000-0  27207-3 0  9991,2 50168  53.2166  83.6186 0001959  38.6500 321.4632 15.08841486 48461,6917.876,95.437,541.096,538.386,0.0
50168.0,STARLINK-3296,PAYLOAD,2022-10-10 17:37:25,15.08842563,0.0001981,53.2162,82.4281,39.4304,320.6832,0.00020983,3.053e-05,0.0,0 STARLINK-3296,1 50168U 21125N   22283.73432694  .00003053  00000-0  20983-3 0  9992,2 50168  53.2162  82.4281 0001981  39.4304 320.6832 15.08842563 45407,6917.873000000001,95.437,541.1080000000002,538.367,0.0
50168.0,STARLINK-3296,PAYLOAD,2022-10-10 20:48:12,15.08833422,0.0002026,53.2173,81.8343,38.6695,321.4442,0.00019685,2.846e-05,0.0,0 STARLINK-3296,1 50168U 21125N   22283.86681056  .00002846  00000-0  19685-3 0  9990,2 50168  53.2173  81.8343 0002026  38.6695 321.4442 15.08833422 48522,6917.9,95.438,541.1669999999998,538.364,0.0
50168.0,STARLINK-3296,PAYLOAD,2022-10-11 11:06:40,15.08838468,0.0002005,53.2173,79.158,39.8407,320.2732,-0.00011148,-2.062e-05,0.0,0 STARLINK-3296,1 50168U 21125N   22284.46297290 -.00002062  00000-0 -11148-3 0  9998,2 50168  53.2173  79.1580 0002005  39.8407 320.2732 15.08838468 45516,6917.885,95.438,541.137,538.363,0.0
